[{"OBJECT_NAME":"LEO EXPRESS 2","OBJECT_ID":"2025-009BS","EPOCH":"2026-03-09T18:02:20.136480","MEAN_MOTION":15.18978124,"ECCENTRICITY":0.00254218,"INCLINATION":96.6294,"RA_OF_ASC_NODE":150.033,"ARG_OF_PERICENTER":119.8002,"MEAN_ANOMALY":240.5767,"EPHEMERIS_TYPE":0,"CLASSIFICATION_TYPE":"U","NORAD_CAT_ID":62673,"ELEMENT_SET_NO":999,"REV_AT_EPOCH":12143,"BSTAR":0.00029070502,"MEAN_MOTION_DOT":6.074e-5,"MEAN_MOTION_DDOT":0},{"OBJECT_NAME":"STARLINK-35685","OBJECT_ID":"2025-299AC","EPOCH":"2026-03-09T22:00:01.999584","MEAN_MOTION":15.36668663,"ECCENTRICITY":0.00013152,"INCLINATION":43.0009,"RA_OF_ASC_NODE":167.5493,"ARG_OF_PERICENTER":263.612,"MEAN_ANOMALY":69.38,"EPHEMERIS_TYPE":0,"CLASSIFICATION_TYPE":"U","NORAD_CAT_ID":67128,"ELEMENT_SET_NO":999,"REV_AT_EPOCH":589,"BSTAR":-0.062393317,"MEAN_MOTION_DOT":-0.02027844,"MEAN_MOTION_DDOT":0}]
